CTC1_L_00071016-03
1 10062U 22165XU  26075.70030093  .00000000  00000+0  00000-0 0  9996
2 10062  45.0000 180.0000 0000000   0.0000   0.0000 14.89338871    12
CTC1_L_00071016-04
1 10063U 24750CQ  26075.70030093  .00000000  00000+0  00000-0 0  9999
2 10063  45.0000 180.0000 0000000   0.0000  90.0000 14.89338871    12
CTC1_L_00071017-01
1 10064U 26098SG  26075.70030093  .00000000  00000+0  00000-0 0  9997
2 10064  45.0000 192.0000 0000000   0.0000 192.0000 14.89338871    19
CTC1_L_00071017-02
1 10065U 26074BG  26075.70030093  .00000000  00000+0  00000-0 0  9992
2 10065  45.0000 192.0000 0000000   0.0000 282.0000 14.89338871    10
CTC1_L_00071017-03
1 10066U 24881KK  26075.70030093  .00000000  00000+0  00000-0 0  9997
2 10066  45.0000 192.0000 0000000   0.0000  12.0000 14.89338871    12
CTC1_L_00071017-04
1 10067U 24154YM  26075.70030093  .00000000  00000+0  00000-0 0  9991
2 10067  45.0000 192.0000 0000000   0.0000 102.0000 14.89338871    13
CTC1_L_00071018-01
1 10068U 23637YF  26075.70030093  .00000000  00000+0  00000-0 0  9997
2 10068  45.0000 204.0000 0000000   0.0000 204.0000 14.89338871    11
CTC1_L_00071018-02
1 10069U 22241IT  26075.70030093  .00000000  00000+0  00000-0 0  9998
2 10069  45.0000 204.0000 0000000   0.0000 294.0000 14.89338871    11
CTC1_L_00071018-03
1 10070U 26777DM  26075.70030093  .00000000  00000+0  00000-0 0  9998
2 10070  45.0000 204.0000 0000000   0.0000  24.0000 14.89338871    14
CTC1_L_00071018-04
1 10071U 23870WJ  26075.70030093  .00000000  00000+0  00000-0 0  9990
2 10071  45.0000 204.0000 0000000   0.0000 114.0000 14.89338871    15
CTC1_L_00071019-01
1 10072U 25104ZH  26075.70030093  .00000000  00000+0  00000-0 0  9993
2 10072  45.0000 216.0000 0000000   0.0000 216.0000 14.89338871    12
CTC1_L_00071019-02
1 10073U 26961YJ  26075.70030093  .00000000  00000+0  00000-0 0  9996
2 10073  45.0000 216.0000 0000000   0.0000 306.0000 14.89338871    13
CTC1_L_00071019-03
1 10074U 22210RU  26075.70030093  .00000000  00000+0  00000-0 0  9990
2 10074  45.0000 216.0000 0000000   0.0000  36.0000 14.89338871    14
CTC1_L_00071019-04
1 10075U 22402HO  26075.70030093  .00000000  00000+0  00000-0 0  9994
2 10075  45.0000 216.0000 0000000   0.0000 126.0000 14.89338871    15
CTC1_L_00071020-01
1 10076U 25464LS  26075.70030093  .00000000  00000+0  00000-0 0  9996
2 10076  45.0000 228.0000 0000000   0.0000 228.0000 14.89338871    12
CTC1_L_00071020-02
1 10077U 22893CT  26075.70030093  .00000000  00000+0  00000-0 0  9990
2 10077  45.0000 228.0000 0000000   0.0000 318.0000 14.89338871    13
CTC1_L_00071020-03
1 10078U 24100VW  26075.70030093  .00000000  00000+0  00000-0 0  9994
2 10078  45.0000 228.0000 0000000   0.0000  48.0000 14.89338871    14
CTC1_L_00071020-04
1 10079U 25672FL  26075.70030093  .00000000  00000+0  00000-0 0  9990
2 10079  45.0000 228.0000 0000000   0.0000 138.0000 14.89338871    15
CTC1_L_00071021-01
1 10080U 26432GW  26075.70030093  .00000000  00000+0  00000-0 0  9997
2 10080  45.0000 240.0000 0000000   0.0000 240.0000 14.89338871    15
CTC1_L_00071021-02
1 10081U 23978AY  26075.70030093  .00000000  00000+0  00000-0 0  9990
2 10081  45.0000 240.0000 0000000   0.0000 330.0000 14.89338871    16
CTC1_L_00071021-03
1 10082U 23514QY  26075.70030093  .00000000  00000+0  00000-0 0  9997
2 10082  45.0000 240.0000 0000000   0.0000  60.0000 14.89338871    17
CTC1_L_00071021-04
1 10083U 22743NK  26075.70030093  .00000000  00000+0  00000-0 0  9991
2 10083  45.0000 240.0000 0000000   0.0000 150.0000 14.89338871    18
CTC1_L_00071022-01
1 10084U 24850NS  26075.70030093  .00000000  00000+0  00000-0 0  9993
2 10084  45.0000 252.0000 0000000   0.0000 252.0000 14.89338871    15
CTC1_L_00071022-02
1 10085U 26725QA  26075.70030093  .00000000  00000+0  00000-0 0  9997
2 10085  45.0000 252.0000 0000000   0.0000 342.0000 14.89338871    16
CTC1_L_00071022-03
1 10086U 24403MR  26075.70030093  .00000000  00000+0  00000-0 0  9999
2 10086  45.0000 252.0000 0000000   0.0000  72.0000 14.89338871    17
CTC1_L_00071022-04
1 10087U 24745MP  26075.70030093  .00000000  00000+0  00000-0 0  9999
2 10087  45.0000 252.0000 0000000   0.0000 162.0000 14.89338871    18
CTC1_L_00071023-01
1 10088U 22384WP  26075.70030093  .00000000  00000+0  00000-0 0  9997
2 10088  45.0000 264.0000 0000000   0.0000 264.0000 14.89338871    15
CTC1_L_00071023-02
1 10089U 23404WR  26075.70030093  .00000000  00000+0  00000-0 0  9992
2 10089  45.0000 264.0000 0000000   0.0000 354.0000 14.89338871    16
CTC1_L_00071023-03
1 10090U 23794CW  26075.70030093  .00000000  00000+0  00000-0 0  9996
2 10090  45.0000 264.0000 0000000   0.0000  84.0000 14.89338871    18
CTC1_L_00071023-04
1 10091U 25018OL  26075.70030093  .00000000  00000+0  00000-0 0  9998
2 10091  45.0000 264.0000 0000000   0.0000 174.0000 14.89338871    19
CTC1_L_00071024-01
1 10092U 25469JH  26075.70030093  .00000000  00000+0  00000-0 0  9999
2 10092  45.0000 276.0000 0000000   0.0000 276.0000 14.89338871    16
CTC1_L_00071024-02
1 10093U 23197BN  26075.70030093  .00000000  00000+0  00000-0 0  9996
2 10093  45.0000 276.0000 0000000   0.0000   6.0000 14.89338871    18
CTC1_L_00071024-03
1 10094U 26376JI  26075.70030093  .00000000  00000+0  00000-0 0  9999
2 10094  45.0000 276.0000 0000000   0.0000  96.0000 14.89338871    18
CTC1_L_00071024-04
1 10095U 23380YX  26075.70030093  .00000000  00000+0  00000-0 0  9992
2 10095  45.0000 276.0000 0000000   0.0000 186.0000 14.89338871    19
CTC1_L_00071025-01
1 10096U 22570GH  26075.70030093  .00000000  00000+0  00000-0 0  9993
2 10096  45.0000 288.0000 0000000   0.0000 288.0000 14.89338871    16
CTC1_L_00071025-02
1 10097U 22583HF  26075.70030093  .00000000  00000+0  00000-0 0  9998
2 10097  45.0000 288.0000 0000000   0.0000  18.0000 14.89338871    18
CTC1_L_00071025-03
1 10098U 25747ZT  26075.70030093  .00000000  00000+0  00000-0 0  9994
2 10098  45.0000 288.0000 0000000   0.0000 108.0000 14.89338871    19
CTC1_L_00071025-04
1 10099U 25417JI  26075.70030093  .00000000  00000+0  00000-0 0  9999
2 10099  45.0000 288.0000 0000000   0.0000 198.0000 14.89338871    19
CTC1_L_00071026-01
1 10100U 26477O   26075.70030093  .00000000  00000+0  00000-0 0  9999
2 10100  45.0000 300.0000 0000000   0.0000 300.0000 14.89338871    12
CTC1_L_00071026-02
1 10101U 25941RA  26075.70030093  .00000000  00000+0  00000-0 0  9995
2 10101  45.0000 300.0000 0000000   0.0000  30.0000 14.89338871    13
CTC1_L_00071026-03
1 10102U 26415OF  26075.70030093  .00000000  00000+0  00000-0 0  9993
2 10102  45.0000 300.0000 0000000   0.0000 120.0000 14.89338871    14
CTC1_L_00071026-04
1 10103U 23182TK  26075.70030093  .00000000  00000+0  00000-0 0  9992
2 10103  45.0000 300.0000 0000000   0.0000 210.0000 14.89338871    15
CTC1_L_00071027-01
1 10104U 26932MX  26075.70030093  .00000000  00000+0  00000-0 0  9999
2 10104  45.0000 312.0000 0000000   0.0000 312.0000 14.89338871    12
CTC1_L_00071027-02
1 10105U 26167IY  26075.70030093  .00000000  00000+0  00000-0 0  9990
2 10105  45.0000 312.0000 0000000   0.0000  42.0000 14.89338871    13
CTC1_L_00071027-03
1 10106U 25036NH  26075.70030093  .00000000  00000+0  00000-0 0  9995
2 10106  45.0000 312.0000 0000000   0.0000 132.0000 14.89338871    14
CTC1_L_00071027-04
1 10107U 26186KC  26075.70030093  .00000000  00000+0  00000-0 0  9993
2 10107  45.0000 312.0000 0000000   0.0000 222.0000 14.89338871    15
CTC1_L_00071028-01
1 10108U 24647TY  26075.70030093  .00000000  00000+0  00000-0 0  9994
2 10108  45.0000 324.0000 0000000   0.0000 324.0000 14.89338871    12
CTC1_L_00071028-02
1 10109U 22819UJ  26075.70030093  .00000000  00000+0  00000-0 0  9994
2 10109  45.0000 324.0000 0000000   0.0000  54.0000 14.89338871    13
CTC1_L_00071028-03
1 10110U 22844DA  26075.70030093  .00000000  00000+0  00000-0 0  9994
2 10110  45.0000 324.0000 0000000   0.0000 144.0000 14.89338871    15
CTC1_L_00071028-04
1 10111U 24221RO  26075.70030093  .00000000  00000+0  00000-0 0  9996
2 10111  45.0000 324.0000 0000000   0.0000 234.0000 14.89338871    16
CTC1_L_00071029-01
1 10112U 26859AI  26075.70030093  .00000000  00000+0  00000-0 0  9996
2 10112  45.0000 336.0000 0000000   0.0000 336.0000 14.89338871    13
CTC1_L_00071029-02
1 10113U 24340ES  26075.70030093  .00000000  00000+0  00000-0 0  9990
2 10113  45.0000 336.0000 0000000   0.0000  66.0000 14.89338871    14
CTC1_L_00071029-03
1 10114U 22035YS  26075.70030093  .00000000  00000+0  00000-0 0  9990
2 10114  45.0000 336.0000 0000000   0.0000 156.0000 14.89338871    15
CTC1_L_00071029-04
1 10115U 25993CT  26075.70030093  .00000000  00000+0  00000-0 0  9997
2 10115  45.0000 336.0000 0000000   0.0000 246.0000 14.89338871    16
CTC1_L_00071030-01
1 10116U 25103SE  26075.70030093  .00000000  00000+0  00000-0 0  9991
2 10116  45.0000 348.0000 0000000   0.0000 348.0000 14.89338871    13
CTC1_L_00071030-02
1 10117U 24683ZS  26075.70030093  .00000000  00000+0  00000-0 0  9994
2 10117  45.0000 348.0000 0000000   0.0000  78.0000 14.89338871    14
CTC1_L_00071030-03
1 10118U 26021UH  26075.70030093  .00000000  00000+0  00000-0 0  9993
2 10118  45.0000 348.0000 0000000   0.0000 168.0000 14.89338871    15
CTC1_L_00071030-04
1 10119U 23265FM  26075.70030093  .00000000  00000+0  00000-0 0  9991
2 10119  45.0000 348.0000 0000000   0.0000 258.0000 14.89338871    16
